NORAD_CAT_ID,OBJECT_NAME,OBJECT_TYPE,EPOCH,MEAN_MOTION,ECCENTRICITY,INCLINATION,RA_OF_ASC_NODE,ARG_OF_PERICENTER,MEAN_ANOMALY,BSTAR,MEAN_MOTION_DOT,MEAN_MOTION_DDOT,TLE_LINE0,TLE_LINE1,TLE_LINE2,SEMIMAJOR_AXIS,PERIOD,APOGEE,PERIGEE,DECAYED
52865.0,STARLINK-4274,PAYLOAD,2022-11-23 12:43:56,15.08838325,0.0002523,53.2195,20.829,32.5256,327.5891,6.135899999999999e-05,6.88e-06,0.0,0 STARLINK-4274,1 52865U 22062AM  22327.53051624  .00000688  00000-0  61359-4 0  9990,2 52865  53.2195  20.8290 0002523  32.5256 327.5891 15.08838325 24935,6917.886,95.438,541.496,538.005,0.0
52865.0,STARLINK-4274,PAYLOAD,2022-11-23 20:40:53,15.0883101,0.0002631,53.2195,19.3426,31.7275,328.3876,-3.1786e-05,-7.94e-06,0.0,0 STARLINK-4274,1 52865U 22062AM  22327.86172509 -.00000794  00000-0 -31786-4 0  9993,2 52865  53.2195  19.3426 0002631  31.7275 328.3876 15.08831010 24982,6917.908,95.438,541.5930000000002,537.953,0.0
52865.0,STARLINK-4274,PAYLOAD,2022-11-24 09:23:57,15.08836845,0.0002373,53.2197,16.9591,24.0209,336.0893,5.4467e-05,5.79e-06,0.0,0 STARLINK-4274,1 52865U 22062AM  22328.39164122  .00000579  00000-0  54467-4 0  9994,2 52865  53.2197  16.9591 0002373  24.0209 336.0893 15.08836845 24576,6917.89,95.438,541.3969999999998,538.113,0.0
52865.0,STARLINK-4274,PAYLOAD,2022-11-24 12:34:43,15.08838727,0.0002321,53.2203,16.3666,37.4658,322.6496,5.2633e-05,5.49e-06,0.0,0 STARLINK-4274,1 52865U 22062AM  22328.52412031  .00000549  00000-0  52633-4 0  9994,2 52865  53.2203  16.3666 0002321  37.4658 322.6496 15.08838727 25088,6917.884,95.438,541.355,538.144,0.0
52865.0,STARLINK-4274,PAYLOAD,2022-11-24 20:31:39,15.0884376,0.0002532,53.2192,14.8816,28.5022,331.6109,0.00010195,1.335e-05,0.0,0 STARLINK-4274,1 52865U 22062AM  22328.85531681  .00001335  00000-0  10195-3 0  9993,2 52865  53.2192  14.8816 0002532  28.5022 331.6109 15.08843760 24640,6917.869000000002,95.437,541.486,537.982,0.0
52865.0,STARLINK-4274,PAYLOAD,2022-11-25 12:25:30,15.08841717,0.0002833,53.2198,11.9088,26.6058,333.5079,9.4033e-05,1.208e-05,0.0,0 STARLINK-4274,1 52865U 22062AM  22329.51771871  .00001208  00000-0  94033-4 0  9997,2 52865  53.2198  11.9088 0002833  26.6058 333.5079 15.08841717 24745,6917.875,95.437,541.7,537.78,0.0
52865.0,STARLINK-4274,PAYLOAD,2022-11-26 09:05:30,15.0884987,0.0002592,53.2201,8.0435,25.0322,335.0795,0.00020297,2.944e-05,0.0,0 STARLINK-4274,1 52865U 22062AM  22330.37882893  .00002944  00000-0  20297-3 0  9998,2 52865  53.2201   8.0435 0002592  25.0322 335.0795 15.08849870 25361,6917.85,95.437,541.508,537.922,0.0
52865.0,STARLINK-4274,PAYLOAD,2022-11-26 12:16:17,15.08840318,0.0002544,53.22,7.4494,26.5741,333.5381,0.00021672,3.163e-05,0.0,0 STARLINK-4274,1 52865U 22062AM  22330.51131401  .00003163  00000-0  21672-3 0  9998,2 52865  53.2200   7.4494 0002544  26.5741 333.5381 15.08840318 24895,6917.879,95.438,541.504,537.985,0.0
52865.0,STARLINK-4274,PAYLOAD,2022-11-27 12:07:05,15.08831975,0.0002745,53.2197,2.9888,23.4472,336.6645,-5.1203e-05,-1.103e-05,0.0,0 STARLINK-4274,1 52865U 22062AM  22331.50492144 -.00001103  00000-0 -51203-4 0  9990,2 52865  53.2197   2.9888 0002745  23.4472 336.6645 15.08831975 25535,6917.905,95.438,541.669,537.871,0.0
52865.0,STARLINK-4274,PAYLOAD,2022-11-28 10:22:28,15.08844268,0.0002751,53.2195,358.8255,25.5957,334.517,-3.4043e-05,-8.3e-06,0.0,0 STARLINK-4274,1 52865U 22062AM  22332.43227503 -.00000830  00000-0 -34043-4 0  9997,2 52865  53.2195 358.8255 0002751  25.5957 334.5170 15.08844268 25676,6917.8669999999975,95.437,541.635,537.8290000000002,0.0
52865.0,STARLINK-4274,PAYLOAD,2022-11-28 18:19:25,15.08830645,0.0002768,53.2191,357.3382,25.94,334.173,-3.7821e-05,-8.900000000000001e-06,0.0,0 STARLINK-4274,1 52865U 22062AM  22332.76348410 -.00000890  00000-0 -37821-4 0  9997,2 52865  53.2191 357.3382 0002768  25.9400 334.1730 15.08830645 25720,6917.909000000002,95.438,541.689,537.859,0.0
52865.0,STARLINK-4274,PAYLOAD,2022-11-29 10:13:16,15.08830263,0.0002758,53.2191,354.3634,27.779,332.3349,0.00017683,2.526e-05,0.0,0 STARLINK-4274,1 52865U 22062AM  22333.42588133  .00002526  00000-0  17683-3 0  9998,2 52865  53.2191 354.3634 0002758  27.7790 332.3349 15.08830263 25337,6917.91,95.438,541.683,537.867,0.0
52865.0,STARLINK-4274,PAYLOAD,2022-11-29 18:10:11,15.08837031,0.0002813,53.2193,352.8769,26.9905,333.1233,0.00018468,2.652e-05,0.0,0 STARLINK-4274,1 52865U 22062AM  22333.75707845  .00002652  00000-0  18468-3 0  9999,2 52865  53.2193 352.8769 0002813  26.9905 333.1233 15.08837031 25872,6917.889,95.438,541.7,537.808,0.0
52865.0,STARLINK-4274,PAYLOAD,2022-11-30 02:07:07,15.08836982,0.0002916,53.2198,351.3907,27.8863,332.2285,1.4643e-05,-5.6e-07,0.0,0 STARLINK-4274,1 52865U 22062AM  22334.08828568 -.00000056  00000-0  14643-4 0  9991,2 52865  53.2198 351.3907 0002916  27.8863 332.2285 15.08836982 25929,6917.89,95.438,541.7719999999998,537.737,0.0
52865.0,STARLINK-4274,PAYLOAD,2022-11-30 05:17:54,15.08836864,0.0002711,53.22,350.7957,31.244,328.8712,3.5896e-05,2.83e-06,0.0,0 STARLINK-4274,1 52865U 22062AM  22334.22076477  .00000283  00000-0  35896-4 0  9995,2 52865  53.2200 350.7957 0002711  31.2440 328.8712 15.08836864 25457,6917.89,95.438,541.63,537.88,0.0
52865.0,STARLINK-4274,PAYLOAD,2022-11-30 14:50:12,15.08843352,0.0002856,53.2193,349.0111,29.0244,331.0906,7.5636e-05,9.16e-06,0.0,0 STARLINK-4274,1 52865U 22062AM  22334.61820018  .00000916  00000-0  75636-4 0  9995,2 52865  53.2193 349.0111 0002856  29.0244 331.0906 15.08843352 26001,6917.87,95.437,541.711,537.759,0.0
52865.0,STARLINK-4274,PAYLOAD,2022-12-01 09:54:50,15.08841084,0.0002969,53.2198,345.4441,28.8101,331.3055,7.9521e-05,9.77e-06,0.0,0 STARLINK-4274,1 52865U 22062AM  22335.41308379  .00000977  00000-0  79521-4 0  9999,2 52865  53.2198 345.4441 0002969  28.8101 331.3055 15.08841084 25632,6917.877,95.437,541.7959999999998,537.688,0.0
52865.0,STARLINK-4274,PAYLOAD,2022-12-01 17:51:45,15.08845912,0.000289,53.2199,343.955,32.873000000000005,327.2441,0.00010223,1.339e-05,0.0,0 STARLINK-4274,1 52865U 22062AM  22335.74427927  .00001339  00000-0  10223-3 0  9992,2 52865  53.2199 343.9550 0002890  32.8730 327.2441 15.08845912 26170,6917.861999999999,95.437,541.727,537.7280000000002,0.0
52865.0,STARLINK-4274,PAYLOAD,2022-12-02 09:45:37,15.08840664,0.0002765,53.2198,340.9809,31.9543,328.1616,7.1679e-05,8.52e-06,0.0,0 STARLINK-4274,1 52865U 22062AM  22336.40668248  .00000852  00000-0  71679-4 0  9991,2 52865  53.2198 340.9809 0002765  31.9543 328.1616 15.08840664 26270,6917.878000000002,95.438,541.656,537.831,0.0
52865.0,STARLINK-4274,PAYLOAD,2022-12-02 17:42:33,15.08836548,0.0003239,53.2202,339.49300000000005,30.1467,329.9711,9.7679e-05,1.266e-05,0.0,0 STARLINK-4274,1 52865U 22062AM  22336.73788592  .00001266  00000-0  97679-4 0  9990,2 52865  53.2202 339.4930 0003239  30.1467 329.9711 15.08836548 25839,6917.891,95.438,541.997,537.515,0.0
52865.0,STARLINK-4274,PAYLOAD,2022-12-03 06:25:38,15.08840157,0.0002669,53.2201,337.1156,26.1502,333.9624,2.8348e-05,1.63e-06,0.0,0 STARLINK-4274,1 52865U 22062AM  22337.26780302  .00000163  00000-0  28348-4 0  9992,2 52865  53.2201 337.1156 0002669  26.1502 333.9624 15.08840157 25912,6917.88,95.438,541.591,537.899,0.0
52865.0,STARLINK-4274,PAYLOAD,2022-12-03 17:33:20,15.08834542,0.0002646,53.2225,335.0356,25.6886,334.4237,-5.3979e-05,-1.147e-05,0.0,0 STARLINK-4274,1 52865U 22062AM  22337.73148971 -.00001147  00000-0 -53979-4 0  9997,2 52865  53.2225 335.0356 0002646  25.6886 334.4237 15.08834542 26470,6917.897,95.438,541.5930000000002,537.932,0.0
52865.0,STARLINK-4274,PAYLOAD,2022-12-04 09:27:11,15.08843733,0.000285,53.219,332.0623,24.1782,335.9344,7.5522e-05,9.14e-06,0.0,0 STARLINK-4274,1 52865U 22062AM  22338.39388133  .00000914  00000-0  75522-4 0  9993,2 52865  53.2190 332.0623 0002850  24.1782 335.9344 15.08843733 26579,6917.869000000002,95.437,541.706,537.762,0.0
52865.0,STARLINK-4274,PAYLOAD,2022-12-04 17:24:06,15.08845887,0.0002869,53.2187,330.5753,24.8923,335.2207,9.6345e-05,1.245e-05,0.0,0 STARLINK-4274,1 52865U 22062AM  22338.72507874  .00001245  00000-0  96345-4 0  9999,2 52865  53.2187 330.5753 0002869  24.8923 335.2207 15.08845887 26131,6917.861999999999,95.437,541.712,537.743,0.0
52865.0,STARLINK-4274,PAYLOAD,2022-12-05 09:17:58,15.08841126,0.0002953,53.2189,327.6024,29.4931,330.6227,0.00019547,2.824e-05,0.0,0 STARLINK-4274,1 52865U 22062AM  22339.38747990  .00002824  00000-0  19547-3 0  9999,2 52865  53.2189 327.6024 0002953  29.4931 330.6227 15.08841126 26239,6917.877,95.437,541.785,537.6990000000002,0.0
52865.0,STARLINK-4274,PAYLOAD,2022-12-06 05:57:59,15.08843102,0.0002853,53.2194,323.7365,27.8953,332.2192,6.0807e-05,6.79e-06,0.0,0 STARLINK-4274,1 52865U 22062AM  22340.24860160  .00000679  00000-0  60807-4 0  9993,2 52865  53.2194 323.7365 0002853  27.8953 332.2192 15.08843102 26858,6917.871,95.437,541.71,537.762,0.0
52865.0,STARLINK-4274,PAYLOAD,2022-12-06 10:44:08,15.08840774,0.000288,53.2194,322.8446,27.8018,332.3127,1.0748e-05,-1.18e-06,0.0,0 STARLINK-4274,1 52865U 22062AM  22340.44732395 -.00000118  00000-0  10748-4 0  9991,2 52865  53.2194 322.8446 0002880  27.8018 332.3127 15.08840774 26390,6917.878000000002,95.438,541.735,537.751,0.0
52865.0,STARLINK-4274,PAYLOAD,2022-12-06 15:30:18,15.08834282,0.0002891,53.2195,321.9519,28.2345,331.8803,-5.5317e-05,-1.169e-05,0.0,0 STARLINK-4274,1 52865U 22062AM  22340.64604987 -.00001169  00000-0 -55317-4 0  9997,2 52865  53.2195 321.9519 0002891  28.2345 331.8803 15.08834282 26428,6917.898,95.438,541.763,537.763,0.0
52865.0,STARLINK-4274,PAYLOAD,2022-12-07 15:21:06,15.08832835,0.0003053,53.2192,317.4925,27.7144,332.401,-7.054e-05,-1.411e-05,0.0,0 STARLINK-4274,1 52865U 22062AM  22341.63965412 -.00001411  00000-0 -70540-4 0  9995,2 52865  53.2192 317.4925 0003053  27.7144 332.4010 15.08832835 26573,6917.901999999999,95.438,541.879,537.655,0.0
